GLOBALSTAR M045         
1 25676U 99019A   24342.86359341 -.00000067  00000+0  23604-3 0  9999
2 25676  51.9944 130.5776 0001171 126.0631  40.2918 12.27052930170146
GLOBALSTAR M019         
1 25677U 99019B   24342.90486588  .00000005  00000+0  98696-3 0  9993
2 25677  51.9873 247.3677 0001056 349.9852  88.0477 12.13866564161914
GLOBALSTAR M044         
1 25678U 99019C   24343.45229383 -.00000062  00000+0  30702-3 0  9991
2 25678  51.9933 173.3447 0007397  42.9638 319.2919 11.90245066148592
GLOBALSTAR M042         
1 25679U 99019D   24342.92566948 -.00000052  00000+0  37842-3 0  9995
2 25679  52.0003 230.8879 0001877 272.2498 170.3845 12.22074442161874
GLOBALSTAR M025         
1 25770U 99031A   24343.50896264 -.00000057  00000+0  31654-3 0  9993
2 25770  51.9808 240.9922 0001208 140.0724  31.0776 11.22557604117951
GLOBALSTAR M049         
1 25771U 99031B   24342.81062190 -.00000113  00000+0 -16632-2 0  9992
2 25771  51.9879 267.7546 0004201  52.9714 307.1466 11.12112296 96137
GLOBALSTAR M047         
1 25772U 99031C   24342.87476374 -.00000048  00000+0  60765-3 0  9995
2 25772  51.9845 282.8572 0016157 296.9304  62.9851 11.31925522449441
GLOBALSTAR M052         
1 25773U 99031D   24342.86419817 -.00000020  00000+0  15358-2 0  9991
2 25773  51.9898  18.9990 0002639 208.7938 321.7061 11.15055643457163
